NORAD_CAT_ID,OBJECT_NAME,OBJECT_TYPE,EPOCH,MEAN_MOTION,ECCENTRICITY,INCLINATION,RA_OF_ASC_NODE,ARG_OF_PERICENTER,MEAN_ANOMALY,BSTAR,MEAN_MOTION_DOT,MEAN_MOTION_DDOT,TLE_LINE0,TLE_LINE1,TLE_LINE2,SEMIMAJOR_AXIS,PERIOD,APOGEE,PERIGEE,DECAYED
53931.0,STARLINK-5015,PAYLOAD,2024-01-06 21:14:57,15.08842741,0.0001383,53.2164,257.8241,81.6011,278.5138,-9.6987e-06,-4.42e-06,0.0,0 STARLINK-5015,1 53931U 22119AX  24006.88538985 -.00000442  00000-0 -96987-5 0  9998,2 53931  53.2164 257.8241 0001383  81.6011 278.5138 15.08842741 72356,6917.872,95.437,540.694,538.78,0.0
53931.0,STARLINK-5015,PAYLOAD,2024-01-07 02:01:06,15.08847587,0.0001567,53.2172,256.9267,73.6776,286.4388,2.4866e-05,1.08e-06,0.0,0 STARLINK-5015,1 53931U 22119AX  24007.08410567  .00000108  00000-0  24866-4 0  9999,2 53931  53.2172 256.9267 0001567  73.6776 286.4388 15.08847587 71960,6917.857,95.437,540.806,538.638,0.0
53931.0,STARLINK-5015,PAYLOAD,2024-01-07 22:41:07,15.08838866,0.0001563,53.2165,253.0675,121.6607,238.4537,2.3673e-05,8.9e-07,0.0,0 STARLINK-5015,1 53931U 22119AX  24007.94523033  .00000089  00000-0  23673-4 0  9990,2 53931  53.2165 253.0675 0001563 121.6607 238.4537 15.08838866 72511,6917.884,95.438,540.83,538.668,0.0
53931.0,STARLINK-5015,PAYLOAD,2024-01-08 22:31:54,15.08841592,0.0001658,53.2173,248.6044,111.6598,248.4571,6.2878e-05,7.13e-06,0.0,0 STARLINK-5015,1 53931U 22119AX  24008.93882943  .00000713  00000-0  62878-4 0  9992,2 53931  53.2173 248.6044 0001658 111.6598 248.4571 15.08841592 72668,6917.876,95.437,540.888,538.594,0.0
53931.0,STARLINK-5015,PAYLOAD,2024-01-09 19:11:55,15.0884013,0.0001508,53.2168,244.7414,101.5745,258.5417,6.9895e-05,8.25e-06,0.0,0 STARLINK-5015,1 53931U 22119AX  24009.79995164  .00000825  00000-0  69895-4 0  9997,2 53931  53.2168 244.7414 0001508 101.5745 258.5417 15.08840130 72372,6917.88,95.438,540.788,538.702,0.0
53931.0,STARLINK-5015,PAYLOAD,2024-01-09 22:22:42,15.08841593,0.0001499,53.2168,244.1461,97.2863,262.8299,7.8338e-05,9.59e-06,0.0,0 STARLINK-5015,1 53931U 22119AX  24009.93243056  .00000959  00000-0  78338-4 0  9999,2 53931  53.2168 244.1461 0001499  97.2863 262.8299 15.08841593 72818,6917.876,95.437,540.778,538.704,0.0
53931.0,STARLINK-5015,PAYLOAD,2024-01-10 01:33:28,15.08842337,0.0001491,53.2167,243.5506,96.8074,263.3088,8.2252e-05,1.021e-05,0.0,0 STARLINK-5015,1 53931U 22119AX  24010.06490981  .00001021  00000-0  82252-4 0  9997,2 53931  53.2167 243.5506 0001491  96.8074 263.3088 15.08842337 72832,6917.873,95.437,540.77,538.707,0.0
53931.0,STARLINK-5015,PAYLOAD,2024-01-10 19:02:43,15.08835965,0.000153,53.2162,240.2781,100.9659,259.1505,1.9032e-05,1.5e-07,0.0,0 STARLINK-5015,1 53931U 22119AX  24010.79355655  .00000015  00000-0  19032-4 0  9993,2 53931  53.2162 240.2781 0001530 100.9659 259.1505 15.08835965 72528,6917.893,95.438,540.816,538.699,0.0
53931.0,STARLINK-5015,PAYLOAD,2024-01-10 20:38:06,15.08836559,0.0001531,53.2163,239.9808,100.7964,259.3201,2.2863e-05,7.6e-07,0.0,0 STARLINK-5015,1 53931U 22119AX  24010.85979633  .00000076  00000-0  22863-4 0  9991,2 53931  53.2163 239.9808 0001531 100.7964 259.3201 15.08836559 72954,6917.891,95.438,540.815,538.697,0.0
53931.0,STARLINK-5015,PAYLOAD,2024-01-11 20:28:52,15.08844903,0.0001444,53.2157,235.5203,98.544,261.5716,7.6826e-05,9.35e-06,0.0,0 STARLINK-5015,1 53931U 22119AX  24011.85338992  .00000935  00000-0  76826-4 0  9991,2 53931  53.2157 235.5203 0001444  98.5440 261.5716 15.08844903 72682,6917.865,95.437,540.729,538.731,0.0
53931.0,STARLINK-5015,PAYLOAD,2024-01-11 23:39:38,15.08848133,0.0001432,53.2158,234.9255,94.5712,265.5444,0.00010131,1.325e-05,0.0,0 STARLINK-5015,1 53931U 22119AX  24011.98586709  .00001325  00000-0  10131-3 0  9996,2 53931  53.2158 234.9255 0001432  94.5712 265.5444 15.08848133 73129,6917.856,95.437,540.711,538.73,0.0
53931.0,STARLINK-5015,PAYLOAD,2024-01-12 18:44:17,15.08832558,0.0001343,53.2152,231.3587,96.852,263.2625,2.3121e-05,8e-07,0.0,0 STARLINK-5015,1 53931U 22119AX  24012.78076225  .00000080  00000-0  23121-4 0  9993,2 53931  53.2152 231.3587 0001343  96.8520 263.2625 15.08832558 72821,6917.903,95.438,540.697,538.839,0.0
53931.0,STARLINK-5015,PAYLOAD,2024-01-12 21:55:04,15.08833236,0.0001326,53.2158,230.7633,92.7177,267.3967,2.3345e-05,8.4e-07,0.0,0 STARLINK-5015,1 53931U 22119AX  24012.91324265  .00000084  00000-0  23345-4 0  9990,2 53931  53.2158 230.7633 0001326  92.7177 267.3967 15.08833236 73263,6917.901,95.438,540.683,538.849,0.0
53931.0,STARLINK-5015,PAYLOAD,2024-01-12 23:30:27,15.08832849,0.0001319,53.2157,230.4662,91.66,268.4543,1.9279e-05,1.9e-07,0.0,0 STARLINK-5015,1 53931U 22119AX  24012.97948340  .00000019  00000-0  19279-4 0  9991,2 53931  53.2157 230.4662 0001319  91.6600 268.4543 15.08832849 73274,6917.902,95.438,540.68,538.855,0.0
53931.0,STARLINK-5015,PAYLOAD,2024-01-13 20:10:27,15.08846978,0.0001302,53.2157,226.6005,89.454,270.6601,7.1004e-05,8.43e-06,0.0,0 STARLINK-5015,1 53931U 22119AX  24013.84059517  .00000843  00000-0  71004-4 0  9996,2 53931  53.2157 226.6005 0001302  89.4540 270.6601 15.08846978 72987,6917.859,95.437,540.625,538.823,0.0
53931.0,STARLINK-5015,PAYLOAD,2024-01-13 23:21:13,15.0884724,0.0001309,53.2154,226.006,92.4888,267.6254,0.00011002,1.464e-05,0.0,0 STARLINK-5015,1 53931U 22119AX  24013.97307383  .00001464  00000-0  11002-3 0  9998,2 53931  53.2154 226.0060 0001309  92.4888 267.6254 15.08847240 73428,6917.858,95.437,540.629,538.818,0.0
53931.0,STARLINK-5015,PAYLOAD,2024-01-14 20:01:14,15.08843792,0.0001304,53.2159,222.1388,89.0548,271.0593,0.00017947,2.57e-05,0.0,0 STARLINK-5015,1 53931U 22119AX  24014.83419568  .00002570  00000-0  17947-3 0  9996,2 53931  53.2159 222.1388 0001304  89.0548 271.0593 15.08843792 73134,6917.869,95.437,540.636,538.832,0.0
53931.0,STARLINK-5015,PAYLOAD,2024-01-15 18:16:38,15.08845094,0.0001301,53.2164,217.9747,84.552,275.5621,3.3978e-05,2.53e-06,0.0,0 STARLINK-5015,1 53931U 22119AX  24015.76155690  .00000253  00000-0  33978-4 0  9991,2 53931  53.2164 217.9747 0001301  84.5520 275.5621 15.08845094 73271,6917.865,95.437,540.63,538.83,0.0
53931.0,STARLINK-5015,PAYLOAD,2024-01-15 19:52:01,15.08845285,0.0001325,53.216,217.6779,83.387,276.7273,3.1226e-05,2.09e-06,0.0,0 STARLINK-5015,1 53931U 22119AX  24015.82779634  .00000209  00000-0  31226-4 0  9993,2 53931  53.2160 217.6779 0001325  83.3870 276.7273 15.08845285 73706,6917.864,95.437,540.646,538.813,0.0
53931.0,STARLINK-5015,PAYLOAD,2024-01-16 13:21:16,15.08840298,0.0001371,53.2158,214.407,78.5713,281.5433,1.448e-05,-5.7e-07,0.0,0 STARLINK-5015,1 53931U 22119AX  24016.55643914 -.00000057  00000-0  14480-4 0  9990,2 53931  53.2158 214.4070 0001371  78.5713 281.5433 15.08840298 73818,6917.879,95.438,540.693,538.796,0.0
53931.0,STARLINK-5015,PAYLOAD,2024-01-16 19:42:48,15.08842059,0.0001349,53.2152,213.2185,80.9317,279.1827,2.3556e-05,8.7e-07,0.0,0 STARLINK-5015,1 53931U 22119AX  24016.82139682  .00000087  00000-0  23556-4 0  9998,2 53931  53.2152 213.2185 0001349  80.9317 279.1827 15.08842059 73433,6917.874,95.437,540.672,538.806,0.0
53931.0,STARLINK-5015,PAYLOAD,2024-01-16 22:53:34,15.0884347,0.0001332,53.2153,212.623,86.2886,273.8258,2.9763e-05,1.86e-06,0.0,0 STARLINK-5015,1 53931U 22119AX  24016.95387499  .00000186  00000-0  29763-4 0  9999,2 53931  53.2153 212.6230 0001332  86.2886 273.8258 15.08843470 73875,6917.87,95.437,540.656,538.813,0.0
53931.0,STARLINK-5015,PAYLOAD,2024-01-17 19:33:36,15.08836442,0.0001413,53.2159,208.7579,95.3388,264.7765,2.5051e-05,1.11e-06,0.0,0 STARLINK-5015,1 53931U 22119AX  24017.81500031  .00000111  00000-0  25051-4 0  9998,2 53931  53.2159 208.7579 0001413  95.3388 264.7765 15.08836442 74000,6917.891,95.438,540.734,538.779,0.0
53931.0,STARLINK-5015,PAYLOAD,2024-01-18 13:02:50,15.08838489,0.0001432,53.2162,205.4886,103.52,256.5951,4.6796e-05,4.57e-06,0.0,0 STARLINK-5015,1 53931U 22119AX  24018.54363948  .00000457  00000-0  46796-4 0  9995,2 53931  53.2162 205.4886 0001432 103.5200 256.5951 15.08838489 74116,6917.885,95.438,540.741,538.759,0.0
53931.0,STARLINK-5015,PAYLOAD,2024-01-18 19:24:23,15.08833298,0.000121,53.2156,204.2964,100.703,259.4099,-1.6169e-05,-5.45e-06,0.0,0 STARLINK-5015,1 53931U 22119AX  24018.80860495 -.00000545  00000-0 -16169-4 0  9994,2 53931  53.2156 204.2964 0001210 100.7030 259.4099 15.08833298 74159,6917.901,95.438,540.603,538.929,0.0
53931.0,STARLINK-5015,PAYLOAD,2024-01-19 11:18:16,15.08821711,0.0001538,53.2172,201.3305,94.5225,265.5943,-5.1391e-05,-1.105e-05,0.0,0 STARLINK-5015,1 53931U 22119AX  24019.47102113 -.00001105  00000-0 -51391-4 0  9993,2 53931  53.2172 201.3305 0001538  94.5225 265.5943 15.08821711 73830,6917.936,95.439,540.865,538.737,0.0
53931.0,STARLINK-5015,PAYLOAD,2024-01-19 22:25:58,15.08825945,0.0001478,53.2167,199.2433,105.1966,254.9189,-1.4924e-05,-5.25e-06,0.0,0 STARLINK-5015,1 53931U 22119AX  24019.93470175 -.00000525  00000-0 -14924-4 0  9996,2 53931  53.2167 199.2433 0001478 105.1966 254.9189 15.08825945 74327,6917.923,95.438,540.811,538.766,0.0
53931.0,STARLINK-5015,PAYLOAD,2024-01-20 19:05:59,15.08795136,0.0001872,53.2169,195.378,70.6869,289.4325,0.00064946,0.00010051,0.0,0 STARLINK-5015,1 53931U 22119AX  24020.79583227  .00010051  00000-0  64946-3 0  9996,2 53931  53.2169 195.3780 0001872  70.6869 289.4325 15.08795136 74038,6918.018,95.44,541.178,538.587,0.0
53931.0,STARLINK-5015,PAYLOAD,2024-01-20 20:41:21,15.08842518,0.0001419,53.2169,195.0805,98.3551,261.7602,1.3554e-05,-7.2e-07,0.0,0 STARLINK-5015,1 53931U 22119AX  24020.86205706 -.00000072  00000-0  13554-4 0  9990,2 53931  53.2169 195.0805 0001419  98.3551 261.7602 15.08842518 74460,6917.873,95.437,540.719,538.756,0.0
53931.0,STARLINK-5015,PAYLOAD,2024-01-21 18:56:45,15.0885196,0.000127,53.2165,190.9167,102.602,257.5114,0.00030769,4.614e-05,0.0,0 STARLINK-5015,1 53931U 22119AX  24021.78941024  .00004614  00000-0  30769-3 0  9993,2 53931  53.2165 190.9167 0001270 102.6020 257.5114 15.08851960 74604,6917.844,95.437,540.587,538.83,0.0
